[{"OBJECT_NAME":"KINEIS-1B","OBJECT_ID":"2024-114A","EPOCH":"2026-03-09T23:21:36.874080","MEAN_MOTION":14.80419144,"ECCENTRICITY":0.00037258,"INCLINATION":97.9923,"RA_OF_ASC_NODE":93.6056,"ARG_OF_PERICENTER":72.6179,"MEAN_ANOMALY":287.544,"EPHEMERIS_TYPE":0,"CLASSIFICATION_TYPE":"U","NORAD_CAT_ID":60079,"ELEMENT_SET_NO":999,"REV_AT_EPOCH":9272,"BSTAR":0.00022203234,"MEAN_MOTION_DOT":1.644e-5,"MEAN_MOTION_DDOT":0},{"OBJECT_NAME":"SL-14 R\/B","OBJECT_ID":"1986-055B","EPOCH":"2026-03-09T16:18:40.903776","MEAN_MOTION":14.85642641,"ECCENTRICITY":0.00181921,"INCLINATION":82.5202,"RA_OF_ASC_NODE":126.6837,"ARG_OF_PERICENTER":336.5476,"MEAN_ANOMALY":145.9532,"EPHEMERIS_TYPE":0,"CLASSIFICATION_TYPE":"U","NORAD_CAT_ID":16882,"ELEMENT_SET_NO":999,"REV_AT_EPOCH":11936,"BSTAR":5.7455179e-5,"MEAN_MOTION_DOT":5.23e-6,"MEAN_MOTION_DDOT":0}]
